<?xml version="1.0" encoding="UTF-8"?>
<kml xmlns="http://www.opengis.net/kml/2.2"><Document><name>Viaje Washington · Juan David y Santiago</name>
<Style id="o"><IconStyle><color>ff3d8aff</color><scale>1.1</scale><Icon><href>https://maps.google.com/mapfiles/kml/paddle/orange-circle.png</href></Icon></IconStyle></Style>
<Style id="s"><IconStyle><color>ffd6a95a</color><scale>1.1</scale><Icon><href>https://maps.google.com/mapfiles/kml/paddle/ltblu-circle.png</href></Icon></IconStyle></Style>
<Style id="r"><LineStyle><color>ff3d8aff</color><width>4</width></LineStyle></Style><Folder><name>Colombia · Días 1, 2, 25 y 26</name><Placemark><name>1. Terminal de Neiva</name><styleUrl>#o</styleUrl><description>Día 1 · Bus nocturno a las 20:30. Punto de salida. Lleguen a las 19:30 con los tiquetes comprados: es puente festivo. Entrada: gratis.</description><Point><coordinates>-75.2819,2.9273,0</coordinates></Point></Placemark><Placemark><name>2. Aeropuerto de Cali</name><styleUrl>#o</styleUrl><description>Día 2 y 25 · Vuelo 17:50. Queda en Palmira, a unos 45 minutos de la terminal de Cali en bus. Estén en el counter a las 14:00. Entrada: gratis.</description><Point><coordinates>-76.3816,3.5432,0</coordinates></Point></Placemark><Placemark><name>3. Aeropuerto El Dorado</name><styleUrl>#o</styleUrl><description>Día 2 y 25 · Conexión internacional. Aquí pasan migración de salida y de regreso. Al volver tienen 8 horas de escala. Entrada: gratis.</description><Point><coordinates>-74.1469,4.7016,0</coordinates></Point></Placemark></Folder><Folder><name>Arlington y Virginia · Base de todo el viaje</name><Placemark><name>1. Aeropuerto de Dulles</name><styleUrl>#o</styleUrl><description>Día 3 y 25 · Metro desde las 7:00 los domingos. Llegan a las 4:30 del domingo. Para el regreso salgan de la casa a las 2:00 en Uber: no hay metro. Entrada: gratis.</description><Point><coordinates>-77.4565,38.9531,0</coordinates></Point></Placemark><Placemark><name>2. Cementerio de Arlington</name><styleUrl>#o</styleUrl><description>Día 4 · Abre a las 8:00. Tumba de JFK y cambio de guardia cada hora en punto en la Tumba del Soldado Desconocido. Fotos con respeto. Entrada: gratis.</description><Point><coordinates>-77.0687,38.8783,0</coordinates></Point></Placemark><Placemark><name>3. Memorial de Iwo Jima</name><styleUrl>#o</styleUrl><description>Día 4 · Abierto siempre. La estatua más famosa de Arlington. A 20 minutos a pie del cementerio. Entrada: gratis.</description><Point><coordinates>-77.0699,38.8904,0</coordinates></Point></Placemark><Placemark><name>4. Netherlands Carillon</name><styleUrl>#o</styleUrl><description>Día 4 · Abierto siempre. La mejor foto del Lincoln, el obelisco y el Capitolio alineados al fondo. Entrada: gratis. Foto: La foto con Lincoln, obelisco y Capitolio alineados detrás.</description><Point><coordinates>-77.0663,38.888,0</coordinates></Point></Placemark><Placemark><name>5. Air Force Memorial</name><styleUrl>#o</styleUrl><description>Día 4 · Atardecer 17:00. Tres agujas de acero sobre una colina con vista panorámica de DC. Siluetas al atardecer. Entrada: gratis. Foto: Siluetas a contraluz al atardecer bajo las tres agujas.</description><Point><coordinates>-77.0656,38.8681,0</coordinates></Point></Placemark><Placemark><name>6. Old Town Alexandria</name><styleUrl>#o</styleUrl><description>Día 9 · Mercado sáb hasta las 12:00. Casas de colores, calles empedradas y trolley gratis por King Street hasta el río. Entrada: gratis. Foto: Cada uno frente a una puerta de color distinto. Collage para el carrusel.</description><Point><coordinates>-77.0469,38.8048,0</coordinates></Point></Placemark><Placemark><name>7. Torpedo Factory</name><styleUrl>#o</styleUrl><description>Día 9 · Abre a las 10:00. Antigua fábrica convertida en estudios de artistas. Gratis. Entrada: gratis.</description><Point><coordinates>-77.04,38.8051,0</coordinates></Point></Placemark><Placemark><name>8. Mount Vernon</name><styleUrl>#o</styleUrl><description>Día 9 opcional · Bus 101 desde Huntington. La casa de George Washington sobre el río Potomac. Entrada: US$30 por persona.</description><Point><coordinates>-77.1073,38.7293,0</coordinates></Point></Placemark><Placemark><name>9. Theodore Roosevelt Island</name><styleUrl>#o</styleUrl><description>Día 18 · Desde Rosslyn a pie. Una isla-bosque en medio del río. En noviembre, hojas de otoño. Entrada: gratis.</description><Point><coordinates>-77.064,38.8968,0</coordinates></Point></Placemark><Placemark><name>10. Gravelly Point</name><styleUrl>#o</styleUrl><description>Día 18 · Mejor en la tarde. Los aviones aterrizan pasando justo sobre la cabeza. Foto "atrapando" el avión. Entrada: gratis. Foto: Mano estirada "atrapando" el avión. Ráfaga de fotos.</description><Point><coordinates>-77.039,38.865,0</coordinates></Point></Placemark><Placemark><name>11. Fashion Centre at Pentagon City (sugerido)</name><styleUrl>#o</styleUrl><description>Extra · Arlington · 10:00–21:00. Centro comercial grande junto al metro. Para un día de lluvia o comprar abrigo. Entrada: gratis.</description><Point><coordinates>-77.0599,38.8627,0</coordinates></Point></Placemark><Placemark><name>12. Clarendon (sugerido)</name><styleUrl>#o</styleUrl><description>Extra · Arlington · Tarde y noche. Barrio con restaurantes y bares cerca de la casa. Buen plan de noche sin ir a DC. Entrada: gratis. Foto: Luces de la calle Wilson Blvd de noche.</description><Point><coordinates>-77.0953,38.8869,0</coordinates></Point></Placemark><Placemark><name>13. Mount Vernon Trail (sugerido)</name><styleUrl>#o</styleUrl><description>Extra · bici · Con luz de día. Sendero junto al Potomac con vista a los monumentos. Se recorre en bici compartida Capital Bikeshare (pase de día, revisen precio en la app). Entrada: US$10 por persona. Foto: En bici con los monumentos al otro lado del río.</description><Point><coordinates>-77.045,38.87,0</coordinates></Point></Placemark><Placemark><name>Ruta Arlington y Virginia</name><styleUrl>#r</styleUrl><LineString><tessellate>1</tessellate><coordinates>-77.4565,38.9531,0 -77.0687,38.8783,0 -77.0699,38.8904,0 -77.0663,38.888,0 -77.0656,38.8681,0 -77.0469,38.8048,0 -77.04,38.8051,0 -77.1073,38.7293,0 -77.064,38.8968,0 -77.039,38.865,0</coordinates></LineString></Placemark></Folder><Folder><name>Washington DC · Días 6, 7, 8, 14, 15 y 22</name><Placemark><name>1. Lincoln Memorial</name><styleUrl>#o</styleUrl><description>Día 6 y 22 · Amanecer 6:45. Amanecer con el reflejo del obelisco en la piscina. Casi sin gente a esa hora. Entrada: gratis. Foto: Al amanecer, de espaldas en las escaleras mirando al obelisco. Reflejo en la piscina desde abajo.</description><Point><coordinates>-77.0502,38.8893,0</coordinates></Point></Placemark><Placemark><name>2. Washington Monument</name><styleUrl>#o</styleUrl><description>Día 6 · Tiquete en recreation.gov. Ascensor hasta el mirador. Reserven el tiquete con días de anticipación. Entrada: US$1 por persona. Foto: Perspectiva: "pellizcar" la punta con los dedos desde el pasto.</description><Point><coordinates>-77.0353,38.8895,0</coordinates></Point></Placemark><Placemark><name>3. Casa Blanca</name><styleUrl>#o</styleUrl><description>Día 6 · Solo por fuera. Foto por el lado sur desde el Ellipse y por el norte desde Lafayette Square. Entrada: gratis.</description><Point><coordinates>-77.0365,38.8977,0</coordinates></Point></Placemark><Placemark><name>4. Jefferson Memorial</name><styleUrl>#o</styleUrl><description>Día 6 · Iluminado de noche. Al borde del Tidal Basin. Precioso iluminado después del atardecer. Entrada: gratis. Foto: De noche desde el otro lado del Tidal Basin, con el reflejo iluminado.</description><Point><coordinates>-77.0365,38.8814,0</coordinates></Point></Placemark><Placemark><name>5. Memorial de MLK</name><styleUrl>#o</styleUrl><description>Día 6 · Abierto siempre. La "Piedra de la Esperanza" frente al Tidal Basin. Entrada: gratis.</description><Point><coordinates>-77.0442,38.8862,0</coordinates></Point></Placemark><Placemark><name>6. Capitolio</name><styleUrl>#o</styleUrl><description>Día 7 · Tour gratis con reserva. Reserven el tour en visitthecapitol.gov. Entrada por el centro de visitantes. Entrada: gratis. Foto: Caminando de la mano hacia el Capitolio, foto desde atrás. Vertical para historias.</description><Point><coordinates>-77.0091,38.8899,0</coordinates></Point></Placemark><Placemark><name>7. Library of Congress</name><styleUrl>#o</styleUrl><description>Día 7 · Túnel desde el Capitolio. La sala de lectura es de las fotos más lindas de Washington. Entrada: gratis. Foto: Desde el balcón de la sala de lectura: simetría perfecta, de frente.</description><Point><coordinates>-77.0047,38.8887,0</coordinates></Point></Placemark><Placemark><name>8. Air and Space Museum</name><styleUrl>#o</styleUrl><description>Día 7 · Pase gratis por internet. Aviones y naves espaciales reales. Entrada: gratis.</description><Point><coordinates>-77.0199,38.8882,0</coordinates></Point></Placemark><Placemark><name>9. Museo de Historia Natural</name><styleUrl>#o</styleUrl><description>Día 7 · 10:00 a 17:30. El diamante Hope, dinosaurios y el elefante de la rotonda. Entrada: gratis.</description><Point><coordinates>-77.0261,38.8913,0</coordinates></Point></Placemark><Placemark><name>10. Kennedy Center</name><styleUrl>#o</styleUrl><description>Día 7 · Show gratis 18:00. Show gratis todos los días en el Millennium Stage y terraza con vista al Potomac. Entrada: gratis.</description><Point><coordinates>-77.0558,38.8957,0</coordinates></Point></Placemark><Placemark><name>11. Georgetown</name><styleUrl>#o</styleUrl><description>Día 8 · Toda la mañana. El barrio más lindo de DC: calle M, casas de ladrillo y canal C&amp;O. Entrada: gratis. Foto: Calles de ladrillo y casas de colores. Caminando sin mirar la cámara.</description><Point><coordinates>-77.0723,38.9076,0</coordinates></Point></Placemark><Placemark><name>12. Escaleras de El Exorcista</name><styleUrl>#o</styleUrl><description>Día 8 · Abierto siempre. Las escaleras de la película, famosas para fotos. Entrada: gratis. Foto: Sentados a mitad de la escalera, foto desde abajo.</description><Point><coordinates>-77.07,38.9055,0</coordinates></Point></Placemark><Placemark><name>13. National Zoo</name><styleUrl>#o</styleUrl><description>Día 14 · Pase gratis por internet. Pandas gigantes, leones y elefantes. Gratis. Entrada: gratis.</description><Point><coordinates>-77.0498,38.9296,0</coordinates></Point></Placemark><Placemark><name>14. National Cathedral</name><styleUrl>#o</styleUrl><description>Día 14 · Exterior gratis. Catedral gótica gigante. Por fuera es gratis. Entrada: US$15 por persona.</description><Point><coordinates>-77.0707,38.9306,0</coordinates></Point></Placemark><Placemark><name>15. National Gallery of Art</name><styleUrl>#o</styleUrl><description>Día 15 · 10:00 a 17:00. Arte gratis, incluyendo la única obra de Da Vinci en América. Entrada: gratis.</description><Point><coordinates>-77.02,38.8913,0</coordinates></Point></Placemark><Placemark><name>16. Museo Afroamericano</name><styleUrl>#o</styleUrl><description>Día 15 · Pase gratis por internet. Uno de los museos más impactantes del país. Entrada: gratis.</description><Point><coordinates>-77.0326,38.8911,0</coordinates></Point></Placemark><Placemark><name>17. The Wharf</name><styleUrl>#o</styleUrl><description>Día 15 · Atardecer 16:45. Muelles con luces, gratis para caminar al atardecer. Entrada: gratis. Foto: Atardecer en el muelle con luces. Video en cámara lenta para historia.</description><Point><coordinates>-77.0237,38.8789,0</coordinates></Point></Placemark><Placemark><name>18. Union Market</name><styleUrl>#o</styleUrl><description>Día 22 · Almuerzo. Mercado de comidas de todo el mundo. Entrada: gratis.</description><Point><coordinates>-76.9973,38.9087,0</coordinates></Point></Placemark><Placemark><name>19. Union Station</name><styleUrl>#o</styleUrl><description>Días 12, 16 y 21 · Trenes Amtrak y MARC. De aquí salen los trenes a Nueva York, Baltimore y Filadelfia. Entrada: gratis.</description><Point><coordinates>-77.0063,38.8973,0</coordinates></Point></Placemark><Placemark><name>20. National Portrait Gallery (sugerido)</name><styleUrl>#o</styleUrl><description>Extra · DC · Gratis · 11:30–19:00. Retratos de presidentes y famosos en un edificio precioso. Abre hasta las 7 p. m.: ideal si llueve o al final del día. Entrada: gratis. Foto: El patio Kogod con techo de cristal ondulado.</description><Point><coordinates>-77.023,38.8977,0</coordinates></Point></Placemark><Placemark><name>21. Ben's Chili Bowl (sugerido)</name><styleUrl>#o</styleUrl><description>Extra · U Street · Almuerzo o cena. Restaurante histórico de U Street. Lo típico es el half-smoke con chili (unos US$10). Entrada: gratis. Foto: Con el letrero rojo de fondo y el plato en la mano.</description><Point><coordinates>-77.0288,38.917,0</coordinates></Point></Placemark><Placemark><name>22. Eastern Market (sugerido)</name><styleUrl>#o</styleUrl><description>Extra · Capitol Hill · Mejor fines de semana. Mercado histórico con puestos de comida, arte y pulgas los fines de semana. Cerca del Capitolio. Entrada: gratis. Foto: Entre los puestos de flores y frutas.</description><Point><coordinates>-76.9963,38.8865,0</coordinates></Point></Placemark><Placemark><name>23. Dupont Circle (sugerido)</name><styleUrl>#o</styleUrl><description>Extra · DC · Tarde. Plaza con fuente, librerías y cafés. Buen lugar para practicar inglés pidiendo un café. Entrada: gratis. Foto: Sentados en el borde de la fuente.</description><Point><coordinates>-77.0434,38.9096,0</coordinates></Point></Placemark><Placemark><name>Ruta Washington DC</name><styleUrl>#r</styleUrl><LineString><tessellate>1</tessellate><coordinates>-77.0502,38.8893,0 -77.0353,38.8895,0 -77.0365,38.8977,0 -77.0365,38.8814,0 -77.0442,38.8862,0 -77.0091,38.8899,0 -77.0047,38.8887,0 -77.0199,38.8882,0 -77.0261,38.8913,0 -77.0558,38.8957,0 -77.0723,38.9076,0 -77.07,38.9055,0 -77.0498,38.9296,0 -77.0707,38.9306,0 -77.02,38.8913,0 -77.0326,38.8911,0 -77.0237,38.8789,0 -76.9973,38.9087,0 -77.0063,38.8973,0</coordinates></LineString></Placemark></Folder><Folder><name>Nueva York · Día 12 · mar 10 nov</name><Placemark><name>1. Penn Station</name><styleUrl>#o</styleUrl><description>Día 12 · Llegada 9:30 · regreso 19:35. Llegan y salen en el tren desde aquí. Entrada: gratis.</description><Point><coordinates>-73.9935,40.7506,0</coordinates></Point></Placemark><Placemark><name>2. Times Square</name><styleUrl>#o</styleUrl><description>Día 12 · 10:00 y de noche. Las escaleras rojas son el mejor punto para fotos. Entrada: gratis. Foto: En las escaleras rojas, brazos abiertos. Ráfaga mientras pasa la gente.</description><Point><coordinates>-73.9855,40.758,0</coordinates></Point></Placemark><Placemark><name>3. Biblioteca Pública</name><styleUrl>#o</styleUrl><description>Día 12 · Gratis. Los leones de la entrada y la sala de lectura. Al lado, Bryant Park. Entrada: gratis. Foto: Con los leones de la entrada. Foto vertical desde abajo.</description><Point><coordinates>-73.9822,40.7532,0</coordinates></Point></Placemark><Placemark><name>4. Grand Central</name><styleUrl>#o</styleUrl><description>Día 12 · Gratis. El techo de estrellas. Foto en Live Photo con exposición larga. Entrada: gratis. Foto: Quietos en el centro mientras todos caminan: Live Photo → Exposición larga.</description><Point><coordinates>-73.9772,40.7527,0</coordinates></Point></Placemark><Placemark><name>5. Rockefeller Center</name><styleUrl>#o</styleUrl><description>Día 12 · Gratis por fuera. Pista de hielo y, a mediados de noviembre, llega el árbol de Navidad. Entrada: gratis.</description><Point><coordinates>-73.9787,40.7587,0</coordinates></Point></Placemark><Placemark><name>6. Catedral de San Patricio</name><styleUrl>#o</styleUrl><description>Día 12 · Gratis. En plena Quinta Avenida. Entrada: gratis.</description><Point><coordinates>-73.976,40.7585,0</coordinates></Point></Placemark><Placemark><name>7. Bethesda Fountain</name><styleUrl>#o</styleUrl><description>Día 12 · 12:30. El corazón de Central Park. Al lado está el Bow Bridge. Entrada: gratis. Foto: Bajo los arcos de la terraza: luz suave y techo de mosaicos.</description><Point><coordinates>-73.9708,40.774,0</coordinates></Point></Placemark><Placemark><name>8. Bow Bridge</name><styleUrl>#o</styleUrl><description>Día 12 · Mediodía. El puente más fotografiado de Central Park, con los árboles de otoño. Entrada: gratis. Foto: Frente a frente en el centro del puente, foto desde la orilla.</description><Point><coordinates>-73.9718,40.7756,0</coordinates></Point></Placemark><Placemark><name>9. Memorial del 11-S</name><styleUrl>#o</styleUrl><description>Día 12 · Gratis. Las dos fuentes donde estaban las Torres Gemelas. Entrada: gratis.</description><Point><coordinates>-74.0134,40.7115,0</coordinates></Point></Placemark><Placemark><name>10. Toro de Wall Street</name><styleUrl>#o</styleUrl><description>Día 12 · Gratis. Siempre hay fila para la foto. Vayan rápido. Entrada: gratis.</description><Point><coordinates>-74.0134,40.7056,0</coordinates></Point></Placemark><Placemark><name>11. Ferry de Staten Island</name><styleUrl>#o</styleUrl><description>Día 12 · 16:00. Gratis. Pasa frente a la Estatua de la Libertad con el atardecer. Entrada: gratis. Foto: De perfil con la Estatua detrás. Lado derecho del ferry de ida.</description><Point><coordinates>-74.013,40.7014,0</coordinates></Point></Placemark><Placemark><name>12. Puente de Brooklyn</name><styleUrl>#o</styleUrl><description>Día 12 · 17:15. Crúcenlo a pie de noche, con Manhattan iluminado detrás. Entrada: gratis. Foto: Caminando hacia la cámara entre los cables, con Manhattan iluminado.</description><Point><coordinates>-73.9969,40.7061,0</coordinates></Point></Placemark><Placemark><name>13. DUMBO</name><styleUrl>#o</styleUrl><description>Día 12 · 18:15. La foto de Washington Street con el Manhattan Bridge. Entrada: gratis. Foto: Washington St con el Manhattan Bridge: saltando al tiempo (cuidado con los carros).</description><Point><coordinates>-73.9881,40.7033,0</coordinates></Point></Placemark><Placemark><name>14. The High Line (sugerido)</name><styleUrl>#o</styleUrl><description>Extra · Chelsea · 7:00–19:00. Parque elevado sobre una antigua vía de tren. Gratis. Una alternativa a la ruta del sur de Manhattan. Entrada: gratis. Foto: Caminando entre plantas con los edificios a los lados.</description><Point><coordinates>-74.0048,40.748,0</coordinates></Point></Placemark><Placemark><name>15. Chelsea Market (sugerido)</name><styleUrl>#o</styleUrl><description>Extra · Chelsea · Almuerzo. Mercado bajo techo. Los tacos de Los Tacos No. 1 son famosos (unos US$5–6 cada uno). Entrada: gratis. Foto: El pasillo de ladrillo con luces.</description><Point><coordinates>-74.0061,40.7424,0</coordinates></Point></Placemark><Placemark><name>16. Little Island (sugerido)</name><styleUrl>#o</styleUrl><description>Extra · Hudson · Gratis. Parque flotante sobre el río Hudson con columnas en forma de tulipán. Entrada: gratis. Foto: Desde la orilla, con las "tazas" de concreto completas.</description><Point><coordinates>-74.0102,40.742,0</coordinates></Point></Placemark><Placemark><name>17. Washington Square Park (sugerido)</name><styleUrl>#o</styleUrl><description>Extra · Village · Tarde. El arco, músicos callejeros y ambiente universitario. Muy bueno para escuchar inglés real. Entrada: gratis. Foto: Debajo del arco, mirando hacia la Quinta Avenida.</description><Point><coordinates>-73.9973,40.7308,0</coordinates></Point></Placemark><Placemark><name>18. Joe's Pizza (sugerido)</name><styleUrl>#o</styleUrl><description>Extra · Village · Comida rápida. Pizza por tajada clásica de Nueva York, unos US$4–5. Se come doblada, de pie. Entrada: gratis. Foto: Doblando la tajada como neoyorquino.</description><Point><coordinates>-74.0021,40.7305,0</coordinates></Point></Placemark><Placemark><name>19. Halal Guys (sugerido)</name><styleUrl>#o</styleUrl><description>Extra · Midtown · Almuerzo. El carrito original de comida halal: pollo con arroz y salsa blanca, unos US$11–12. Entrada: gratis.</description><Point><coordinates>-73.979,40.7618,0</coordinates></Point></Placemark><Placemark><name>20. Summit One Vanderbilt (sugerido)</name><styleUrl>#o</styleUrl><description>Extra · pagado · Mejor al atardecer. Mirador con espejos al lado de Grand Central. Es pagado (desde unos US$45); revisen precio en su web. Entrada: US$45 por persona. Foto: Reflejos infinitos en el salón de espejos.</description><Point><coordinates>-73.9787,40.7527,0</coordinates></Point></Placemark><Placemark><name>21. Brooklyn Bridge Park (sugerido)</name><styleUrl>#o</styleUrl><description>Extra · Brooklyn · Atardecer. Parque frente al agua con la mejor vista del skyline de Manhattan. Entrada: gratis. Foto: El skyline de fondo al atardecer, sentados en las escaleras.</description><Point><coordinates>-73.9967,40.7003,0</coordinates></Point></Placemark><Placemark><name>22. Teleférico de Roosevelt Island (sugerido)</name><styleUrl>#o</styleUrl><description>Extra · tarifa de metro · De noche. Teleférico sobre el East River por el precio de un pasaje de metro. Entrada: US$3 por persona. Foto: Video desde la ventana con Manhattan iluminado.</description><Point><coordinates>-73.9644,40.7612,0</coordinates></Point></Placemark><Placemark><name>Ruta Nueva York</name><styleUrl>#r</styleUrl><LineString><tessellate>1</tessellate><coordinates>-73.9935,40.7506,0 -73.9855,40.758,0 -73.9822,40.7532,0 -73.9772,40.7527,0 -73.9787,40.7587,0 -73.976,40.7585,0 -73.9708,40.774,0 -73.9718,40.7756,0 -74.0134,40.7115,0 -74.0134,40.7056,0 -74.013,40.7014,0 -73.9969,40.7061,0 -73.9881,40.7033,0</coordinates></LineString></Placemark></Folder><Folder><name>Baltimore · Día 16 · sáb 14 nov</name><Placemark><name>1. Monumento a Washington</name><styleUrl>#o</styleUrl><description>Día 16 · Mañana. El primer monumento a Washington, en el barrio Mount Vernon. Entrada: gratis.</description><Point><coordinates>-76.6156,39.2975,0</coordinates></Point></Placemark><Placemark><name>2. Walters Art Museum</name><styleUrl>#o</styleUrl><description>Día 16 · Gratis · mié a dom 10:00–17:00. Museo de arte gratis con 7.000 años de historia: armaduras, joyas, Monet y Manet. Está al lado del monumento a Washington. Entrada: gratis.</description><Point><coordinates>-76.6164,39.2966,0</coordinates></Point></Placemark><Placemark><name>3. Lexington Market</name><styleUrl>#o</styleUrl><description>Día 16 · Almuerzo 11:00. Mercado histórico, famoso por los crab cakes. Entrada: gratis.</description><Point><coordinates>-76.6213,39.2915,0</coordinates></Point></Placemark><Placemark><name>4. Inner Harbor</name><styleUrl>#o</styleUrl><description>Día 16 · 12:30. El puerto con barcos históricos. Entrada: gratis.</description><Point><coordinates>-76.6081,39.2854,0</coordinates></Point></Placemark><Placemark><name>5. Fells Point</name><styleUrl>#o</styleUrl><description>Día 16 · 14:00. Calles empedradas y casas antiguas junto al agua. Entrada: gratis. Foto: Calles empedradas y barcos. Tono vintage.</description><Point><coordinates>-76.5926,39.2826,0</coordinates></Point></Placemark><Placemark><name>6. Federal Hill Park</name><styleUrl>#o</styleUrl><description>Día 16 · Atardecer 16:50. Mirador gratis con toda la ciudad de frente. Entrada: gratis. Foto: Panorámica del puerto al atardecer.</description><Point><coordinates>-76.6083,39.2795,0</coordinates></Point></Placemark><Placemark><name>7. Fort McHenry (sugerido)</name><styleUrl>#o</styleUrl><description>Extra · pagado · 9:00–17:00. Fuerte donde nació el himno de EE. UU. Entrada pagada (revisen precio en nps.gov). Entrada: US$15 por persona. Foto: Con la bandera gigante sobre el fuerte.</description><Point><coordinates>-76.58,39.2633,0</coordinates></Point></Placemark><Placemark><name>Ruta Baltimore</name><styleUrl>#r</styleUrl><LineString><tessellate>1</tessellate><coordinates>-76.6156,39.2975,0 -76.6164,39.2966,0 -76.6213,39.2915,0 -76.6081,39.2854,0 -76.5926,39.2826,0 -76.6083,39.2795,0</coordinates></LineString></Placemark></Folder><Folder><name>Filadelfia · Día 21 · jue 19 nov</name><Placemark><name>1. Escaleras de Rocky</name><styleUrl>#o</styleUrl><description>Día 21 · 9:00. Súbanlas corriendo y levanten los brazos arriba. Entrada: gratis. Foto: Arriba, brazos al cielo. Video corriendo con "Gonna Fly Now".</description><Point><coordinates>-75.181,39.9656,0</coordinates></Point></Placemark><Placemark><name>2. City Hall y LOVE Park</name><styleUrl>#o</styleUrl><description>Día 21 · 9:45. El edificio más imponente de la ciudad y la escultura LOVE. Entrada: gratis.</description><Point><coordinates>-75.1636,39.9524,0</coordinates></Point></Placemark><Placemark><name>3. Reading Terminal Market</name><styleUrl>#o</styleUrl><description>Día 21 · Almuerzo 11:00. Aquí se come el cheesesteak. Entrada: gratis.</description><Point><coordinates>-75.159,39.9533,0</coordinates></Point></Placemark><Placemark><name>4. Liberty Bell</name><styleUrl>#o</styleUrl><description>Día 21 · Gratis. La campana de la independencia, con su grieta famosa. Entrada: gratis. Foto: Señalando la grieta de la campana.</description><Point><coordinates>-75.1503,39.9496,0</coordinates></Point></Placemark><Placemark><name>5. Independence Hall</name><styleUrl>#o</styleUrl><description>Día 21 · Tiquete en recreation.gov. Donde se firmó la Declaración de Independencia. Entrada: US$1 por persona.</description><Point><coordinates>-75.15,39.9489,0</coordinates></Point></Placemark><Placemark><name>6. Elfreth's Alley</name><styleUrl>#o</styleUrl><description>Día 21 · 13:15. La calle habitada más antigua de EE. UU. Entrada: gratis.</description><Point><coordinates>-75.1425,39.9527,0</coordinates></Point></Placemark><Placemark><name>7. Italian Market (sugerido)</name><styleUrl>#o</styleUrl><description>Extra · sur de Filadelfia · Mañana. Mercado al aire libre. Muy cerca están Pat’s y Geno’s, los rivales del cheesesteak. Entrada: gratis. Foto: Cheesesteak de Pat’s vs. Geno’s: foto con cada uno.</description><Point><coordinates>-75.158,39.9387,0</coordinates></Point></Placemark><Placemark><name>8. Magic Gardens (sugerido)</name><styleUrl>#o</styleUrl><description>Extra · pagado · Reserva en su web. Laberinto de mosaicos hecho con espejos y cerámica. Pagado. Entrada: US$15 por persona. Foto: Entre las paredes de mosaicos, colores por todos lados.</description><Point><coordinates>-75.1593,39.9427,0</coordinates></Point></Placemark><Placemark><name>9. Boathouse Row (sugerido)</name><styleUrl>#o</styleUrl><description>Extra · atardecer · De noche se iluminan. Casas de remo junto al río, iluminadas de noche. A pocos pasos de las escaleras de Rocky. Entrada: gratis. Foto: Las casas iluminadas reflejadas en el río.</description><Point><coordinates>-75.1866,39.9693,0</coordinates></Point></Placemark><Placemark><name>Ruta Filadelfia</name><styleUrl>#r</styleUrl><LineString><tessellate>1</tessellate><coordinates>-75.181,39.9656,0 -75.1636,39.9524,0 -75.159,39.9533,0 -75.1503,39.9496,0 -75.15,39.9489,0 -75.1425,39.9527,0</coordinates></LineString></Placemark></Folder><Folder><name>Delaware · Día 21 · tarde</name><Placemark><name>1. Estación de Wilmington</name><styleUrl>#o</styleUrl><description>Día 21 · Tren de regreso 20:45. Llegan en tren SEPTA desde Filadelfia y regresan en Amtrak a DC. Entrada: gratis.</description><Point><coordinates>-75.5513,39.7369,0</coordinates></Point></Placemark><Placemark><name>2. Christiana Mall</name><styleUrl>#o</styleUrl><description>Día 21 · 15:15 a 19:30. Target, Macy’s, Nordstrom y Apple sin impuesto a las ventas. Lleven la lista. Entrada: gratis. Foto: "Haul" de compras para historia: bolsas en fila.</description><Point><coordinates>-75.651,39.6795,0</coordinates></Point></Placemark><Placemark><name>3. Wilmington Riverfront (sugerido)</name><styleUrl>#o</styleUrl><description>Extra · Wilmington · Antes del tren. Malecón junto al río, a pasos de la estación. Para estirar las piernas antes del tren. Entrada: gratis.</description><Point><coordinates>-75.559,39.736,0</coordinates></Point></Placemark><Placemark><name>Ruta Delaware</name><styleUrl>#r</styleUrl><LineString><tessellate>1</tessellate><coordinates>-75.5513,39.7369,0 -75.651,39.6795,0</coordinates></LineString></Placemark></Folder><Folder><name>Nieve · Opcional</name><Placemark><name>1. Big SNOW American Dream</name><styleUrl>#s</styleUrl><description>Variante del día 12 · Nieve garantizada. Nieve real bajo techo en Nueva Jersey, a unos 20 minutos de Manhattan en el bus 355 desde Port Authority. El plan de tubing incluye chaqueta y pantalón. Es la forma segura y barata de tocar nieve en este viaje. Entrada: US$40 por persona. Foto: Lanzando nieve al aire en cámara lenta. ¡La primera vez en nieve!</description><Point><coordinates>-74.07,40.809,0</coordinates></Point></Placemark><Placemark><name>2. Shenandoah · Skyline Drive</name><styleUrl>#s</styleUrl><description>Si alguien tiene carro · Nieve: poco probable. Las montañas más altas cerca de Washington. A veces cae algo de nieve en noviembre, pero no es seguro y se necesita carro. Entrada: gratis.</description><Point><coordinates>-78.44,38.53,0</coordinates></Point></Placemark><Placemark><name>3. Snowshoe Mountain</name><styleUrl>#s</styleUrl><description>Fuera de las fechas · Abre cerca del 26 de nov. La estación de esquí grande más cercana. Suele abrir por Acción de Gracias, cuando ustedes ya se fueron. Entrada: gratis.</description><Point><coordinates>-79.994,38.41,0</coordinates></Point></Placemark><Placemark><name>4. Killington, Vermont</name><styleUrl>#s</styleUrl><description>Muy lejos · Abrió el 12 nov en 2025. La primera estación en abrir en el este; en 2025 abrió el 12 de noviembre. Nieve casi segura, pero está a más de 5 horas de Nueva York y con tren, alojamiento y tiquete fácilmente pasa de US$300 por persona. Entrada: gratis.</description><Point><coordinates>-72.8201,43.6045,0</coordinates></Point></Placemark></Folder></Document></kml>